[{"OBJECT_NAME":"ICEYE-X7","OBJECT_ID":"2020-068L","EPOCH":"2026-03-09T22:52:28.702272","MEAN_MOTION":15.29152508,"ECCENTRICITY":0.00068409,"INCLINATION":97.7412,"RA_OF_ASC_NODE":31.2076,"ARG_OF_PERICENTER":332.3045,"MEAN_ANOMALY":27.7829,"EPHEMERIS_TYPE":0,"CLASSIFICATION_TYPE":"U","NORAD_CAT_ID":46496,"ELEMENT_SET_NO":999,"REV_AT_EPOCH":29961,"BSTAR":0.0005654802,"MEAN_MOTION_DOT":0.00015947,"MEAN_MOTION_DDOT":0},{"OBJECT_NAME":"STARLINK-31732","OBJECT_ID":"2024-117J","EPOCH":"2026-03-09T04:17:54.074976","MEAN_MOTION":15.30189924,"ECCENTRICITY":0.00014165,"INCLINATION":53.1616,"RA_OF_ASC_NODE":39.1116,"ARG_OF_PERICENTER":78.7129,"MEAN_ANOMALY":281.403,"EPHEMERIS_TYPE":0,"CLASSIFICATION_TYPE":"U","NORAD_CAT_ID":60099,"ELEMENT_SET_NO":999,"REV_AT_EPOCH":9681,"BSTAR":-9.614943e-6,"MEAN_MOTION_DOT":-6.44e-6,"MEAN_MOTION_DDOT":0}]
